#aV2016  6  6  0  0  0.00000000     288 DD+AD WGS84 FIT  NGA
## 1900  86400.00000000   300.00000000 57545 0.0000000000000
+   31     1  2  3  5  6  7  8  9 10 11 12 13 14 15 16 17 18
+         19 20 21 22 23 24 25 26 27 28 29 30 31 32  0  0  0
+          0  0  0  0  0  0  0  0  0  0  0  0  0  0  0  0  0
+          0  0  0  0  0  0  0  0  0  0  0  0  0  0  0  0  0
+          0  0  0  0  0  0  0  0  0  0  0  0  0  0  0  0  0
++         2  2  2  2  2  2  2  2  2  2  2  2  2  2  2  2  2
++         2  2  2  2  2  2  2  2  2  2  2  2  2  2  0  0  0
++         0  0  0  0  0  0  0  0  0  0  0  0  0  0  0  0  0
++         0  0  0  0  0  0  0  0  0  0  0  0  0  0  0  0  0
++         0  0  0  0  0  0  0  0  0  0  0  0  0  0  0  0  0
%c cc cc ccc ccc cccc cccc cccc cccc ccccc ccccc ccccc ccccc
%c cc cc ccc ccc cccc cccc cccc cccc ccccc ccccc ccccc ccccc
%f  0.0000000  0.000000000  0.00000000000  0.000000000000000
%f  0.0000000  0.000000000  0.00000000000  0.000000000000000
%i    0    0    0    0      0      0      0      0         0
%i    0    0    0    0      0      0      0      0         0
/*      NGA, ST. LOUIS,MO.                                  
/*   EPHEMERIS COMPUTED FROM 2 DAYS OF DATA                 
/*   EPOCHA v2.4 SMOOTHER                                   
/*   G1762 IERS2010 SATAF SATAPC                            
*  2016  6  6 23 45  0.00000000
P  1  21809.240952  12835.981162   8374.513631     22.806663                    
V  1   6103.168403   9059.698707 -29261.915956      0.012273                    
P  2 -12160.920658 -21304.190320  11101.531539    587.131066                    
V  2  11687.742138   6895.791307  26739.664565     -0.024919                    
P  3  14621.896468   4440.078605  21731.365285    -64.949156                    
V  3  -6503.602345  26805.827276  -1103.568851     -0.034767                    
P  5  -5275.146882 -21981.078417 -13850.858113   -114.850286                    
V  5   6454.951264 -16577.146753  24160.832824      0.029617                    
P  6   2097.376532 -17205.203472  20137.468992    201.123401                    
V  6  19309.147387  16735.541995  12299.535875      0.054162                    
P  7  17942.476141  -1218.700302 -19541.220107    450.049393                    
V  7  17037.389856  18279.574703  14000.952256     -0.023015                    
P  8  17069.157780   8266.640729 -18561.404287    -38.038840                    
V  8 -22201.705350   8270.615288 -16649.344751     -0.014301                    
P  9  25573.373204  -7146.767912    919.855744    143.699022                    
V  9   -259.895307   3198.210955  31590.924602      0.072968                    
P 10 -10781.853831  23051.873048  -7460.567930    -39.791256                    
V 10   -515.751372  -9901.088439 -29827.831915     -0.084256                    
P 11  24027.361451  11294.720608  -1780.905994   -649.683748                    
V 11  -3306.044163   3765.505858 -30149.211314     -0.013191                    
P 12 -12381.151197  -8547.315825  21779.088700    381.999696                    
V 12   8119.557106 -26657.425720  -5603.846583      0.011086                    
P 13  -8574.593225 -13331.278917 -21424.152985    -23.002214                    
V 13  26369.787888  -5295.910815  -7386.875820     -0.025493                    
P 14 -12108.245172  15456.064735  18076.342049    -17.971179                    
V 14 -22298.222357   3235.949705 -18120.915198     -0.020498                    
P 15 -19888.689573  -6082.389193 -16833.561749   -314.185807                    
V 15  19110.644985  -9184.044512 -19056.520082     -0.016214                    
P 16   2494.800460  22368.080600 -13890.671089    -12.528287                    
V 16  -6891.764664  16239.973403  25476.027325      0.024772                    
P 17  17035.699326 -14400.693592  14604.297133   -203.990090                    
V 17  17908.699699  -2639.905768 -24216.666703     -0.000433                    
P 18 -15263.399430  13689.311555 -16204.126450    523.756285                    
V 18   1597.052755 -21938.507487 -19645.311308      0.040210                    
P 19   8491.032916 -15382.092287  19786.087230   -525.565881                    
V 19  25203.110732  -4071.919229 -13452.531034      0.001383                    
P 20 -14568.813899  -8221.286803 -20772.987890    416.879309                    
V 20   4760.649649 -25766.099777   6950.937657      0.023009                    
P 21 -16205.225105   4996.360952 -19747.357272   -525.066217                    
V 21 -19151.782413 -18766.560900  10337.405465     -0.011188                    
P 22  12053.485183  13998.871433  19286.746477    325.770196                    
V 22  -6521.101835  23329.982424 -13145.989157     -0.085390                    
P 23  24817.992558    257.136642  10247.308616   -177.040082                    
V 23 -11355.991470   6025.138458  27442.290943     -0.015998                    
P 24 -21647.079486 -14744.629314   4938.552256    -18.182614                    
V 24  -2729.065011  -6412.809571 -30548.711614     -0.005220                    
P 25 -15588.854897   5393.034982  20645.515012   -185.482131                    
V 25   5329.927604 -25976.137906  10929.367802     -0.070313                    
P 26  -3320.370281  26061.414760  -3736.409178   -388.030696                    
V 26  -3830.508602   3985.742676  31300.138479     -0.115261                    
P 27   5777.573689  13892.578496 -21927.670770    100.710887                    
V 27 -26513.242826   8084.531702  -1699.895131      0.041618                    
P 28  12491.847282 -21772.786427  -7979.117798    528.334504                    
V 28  -1495.621925  11058.902704 -30205.381086      0.026779                    
P 29 -26010.252561   3463.342932   3953.887159    656.883701                    
V 29   4345.646332  -3380.612550  31635.247785     -0.002244                    
P 30  11171.667445 -10607.269285 -21642.872491    131.163233                    
V 30  18716.801361  20141.261312   -311.741057      0.028325                    
P 31    318.873579  18645.418738  18870.601193    265.204756                    
V 31 -17806.662816 -15929.658067  16479.399981     -0.018858                    
P 32 -15218.353866  15683.734243  15094.008286    -19.454811                    
V 32 -18927.982412   3607.713383 -22862.261028     -0.075258                    
EOF
